{
    "links": {
        "self": "http://www.neowsapp.com/rest/v1/neo/3150778?api_key=iIulBulltgU6a56xZRHN4H3l9WmuAYTsLGpBGhQ2"
    },
    "id": "3150778",
    "neo_reference_id": "3150778",
    "name": "(2003 EC50)",
    "designation": "2003 EC50",
    "nasa_jpl_url": "http://ssd.jpl.nasa.gov/sbdb.cgi?sstr=3150778",
    "absolute_magnitude_h": 22.9,
    "estimated_diameter": {
        "kilometers": {
            "estimated_diameter_min": 0.0699125232,
            "estimated_diameter_max": 0.1563291544
        },
        "meters": {
            "estimated_diameter_min": 69.9125232246,
            "estimated_diameter_max": 156.3291544087
        },
        "miles": {
            "estimated_diameter_min": 0.0434416145,
            "estimated_diameter_max": 0.097138403
        },
        "feet": {
            "estimated_diameter_min": 229.3718026961,
            "estimated_diameter_max": 512.8909429502
        }
    },
    "is_potentially_hazardous_asteroid": false,
    "close_approach_data": [
        {
            "close_approach_date": "2003-03-25",
            "close_approach_date_full": "2003-Mar-25 07:52",
            "epoch_date_close_approach": 1048578720000,
            "relative_velocity": {
                "kilometers_per_second": "11.9286208731",
                "kilometers_per_hour": "42943.0351430419",
                "miles_per_hour": "26683.132030964"
            },
            "miss_distance": {
                "astronomical": "0.0312776618",
                "lunar": "12.1670104402",
                "kilometers": "4679071.583860366",
                "miles": "2907440.2624144108"
            },
            "orbiting_body": "Earth"
        }
    ],
    "orbital_data": {
        "orbit_id": "13",
        "orbit_determination_date": "2017-04-06 09:14:16",
        "first_observation_date": "2003-03-10",
        "last_observation_date": "2003-03-23",
        "data_arc_in_days": 13,
        "observations_used": 35,
        "orbit_uncertainty": "8",
        "minimum_orbit_intersection": ".0308984",
        "jupiter_tisserand_invariant": "3.433",
        "epoch_osculation": "2452711.5",
        "eccentricity": ".582625408254968",
        "semi_major_axis": "2.180197227676293",
        "inclination": "5.904895976337507",
        "ascending_node_longitude": "21.29651232664428",
        "orbital_period": "1175.823407180178",
        "perihelion_distance": ".9099589278250433",
        "perihelion_argument": "201.4031825078856",
        "aphelion_distance": "3.450435527527542",
        "perihelion_time": "2452752.211940103637",
        "mean_anomaly": "347.5352894424362",
        "mean_motion": ".3061684244433784",
        "equinox": "J2000",
        "orbit_class": {
            "orbit_class_type": "APO",
            "orbit_class_description": "Near-Earth asteroid orbits which cross the Earth’s orbit similar to that of 1862 Apollo",
            "orbit_class_range": "a (semi-major axis) > 1.0 AU; q (perihelion) < 1.017 AU"
        }
    },
    "is_sentry_object": false
}